ONEWEB-0098             
1 45442U 20020U   24251.43288354 -.00000206  00000+0 -61732-3 0  9995
2 45442  87.8982 150.0582 0001922  82.2788 277.8558 13.11417128217745
ONEWEB-0055             
1 45443U 20020V   24251.41847844  .00000345  00000+0  93696-3 0  9995
2 45443  87.8983 150.0634 0001749  77.8324 282.3000 13.11417007217714
ONEWEB-0093             
1 45444U 20020W   24251.47019951  .00000416  00000+0  11373-2 0  9992
2 45444  87.8985 150.0355 0001581  78.3110 281.8195 13.11418817217786
ONEWEB-0029             
1 45445U 20020X   24251.25995848  .00000501  00000+0  13787-2 0  9993
2 45445  87.8985 150.0903 0001603  72.8053 287.3250 13.11415080217733
ONEWEB-0068             
1 45446U 20020Y   24251.46424574  .00000194  00000+0  51276-3 0  9994
2 45446  87.8986 150.0358 0001638  72.2119 287.9188 13.11416681217716
ONEWEB-0046             
1 45447U 20020Z   24251.46171391  .00000114  00000+0  28631-3 0  9992
2 45447  87.8987 150.0483 0001782  63.6913 296.4398 13.11419167217713
ONEWEB-0063             
1 45448U 20020AA  24251.41424576  .00000533  00000+0  14677-2 0  9993
2 45448  87.8984 150.0577 0001937  67.3085 292.8247 13.11415515217792
ONEWEB-0019             
1 45449U 20020AB  24251.46510697  .00000277  00000+0  74601-3 0  9998
2 45449  87.8991 150.0541 0001921  76.5093 283.6249 13.11419352217643
