<?xml version="1.0" encoding="UTF-8"?>
<ndm xmlns:xsi="http://www.w3.org/2001/XMLSchema-instance" xsi:noNamespaceSchemaLocation="https://sanaregistry.org/r/ndmxml_unqualified/ndmxml-2.0.0-master-2.0.xsd">
<omm id="CCSDS_OMM_VERS" version="2.0">
<header><CREATION_DATE/><ORIGINATOR/></header><body><segment><metadata><OBJECT_NAME>ONEWEB-0098</OBJECT_NAME><OBJECT_ID>2020-020U</OBJECT_ID><CENTER_NAME>EARTH</CENTER_NAME><REF_FRAME>TEME</REF_FRAME><TIME_SYSTEM>UTC</TIME_SYSTEM><MEAN_ELEMENT_THEORY>SGP4</MEAN_ELEMENT_THEORY></metadata><data><meanElements><EPOCH>2024-09-07T10:23:21.137856</EPOCH><MEAN_MOTION>13.11417128</MEAN_MOTION><ECCENTRICITY>.0001922</ECCENTRICITY><INCLINATION>87.8982</INCLINATION><RA_OF_ASC_NODE>150.0582</RA_OF_ASC_NODE><ARG_OF_PERICENTER>82.2788</ARG_OF_PERICENTER><MEAN_ANOMALY>277.8558</MEAN_ANOMALY></meanElements><tleParameters><EPHEMERIS_TYPE>0</EPHEMERIS_TYPE><CLASSIFICATION_TYPE>U</CLASSIFICATION_TYPE><NORAD_CAT_ID>45442</NORAD_CAT_ID><ELEMENT_SET_NO>999</ELEMENT_SET_NO><REV_AT_EPOCH>21774</REV_AT_EPOCH><BSTAR>-.61732E-3</BSTAR><MEAN_MOTION_DOT>-.206E-5</MEAN_MOTION_DOT><MEAN_MOTION_DDOT>0</MEAN_MOTION_DDOT></tleParameters></data></segment></body></omm>
<omm id="CCSDS_OMM_VERS" version="2.0">
<header><CREATION_DATE/><ORIGINATOR/></header><body><segment><metadata><OBJECT_NAME>ONEWEB-0055</OBJECT_NAME><OBJECT_ID>2020-020V</OBJECT_ID><CENTER_NAME>EARTH</CENTER_NAME><REF_FRAME>TEME</REF_FRAME><TIME_SYSTEM>UTC</TIME_SYSTEM><MEAN_ELEMENT_THEORY>SGP4</MEAN_ELEMENT_THEORY></metadata><data><meanElements><EPOCH>2024-09-07T10:02:36.537216</EPOCH><MEAN_MOTION>13.11417007</MEAN_MOTION><ECCENTRICITY>.0001749</ECCENTRICITY><INCLINATION>87.8983</INCLINATION><RA_OF_ASC_NODE>150.0634</RA_OF_ASC_NODE><ARG_OF_PERICENTER>77.8324</ARG_OF_PERICENTER><MEAN_ANOMALY>282.3000</MEAN_ANOMALY></meanElements><tleParameters><EPHEMERIS_TYPE>0</EPHEMERIS_TYPE><CLASSIFICATION_TYPE>U</CLASSIFICATION_TYPE><NORAD_CAT_ID>45443</NORAD_CAT_ID><ELEMENT_SET_NO>999</ELEMENT_SET_NO><REV_AT_EPOCH>21771</REV_AT_EPOCH><BSTAR>.93696E-3</BSTAR><MEAN_MOTION_DOT>.345E-5</MEAN_MOTION_DOT><MEAN_MOTION_DDOT>0</MEAN_MOTION_DDOT></tleParameters></data></segment></body></omm>
<omm id="CCSDS_OMM_VERS" version="2.0">
<header><CREATION_DATE/><ORIGINATOR/></header><body><segment><metadata><OBJECT_NAME>ONEWEB-0093</OBJECT_NAME><OBJECT_ID>2020-020W</OBJECT_ID><CENTER_NAME>EARTH</CENTER_NAME><REF_FRAME>TEME</REF_FRAME><TIME_SYSTEM>UTC</TIME_SYSTEM><MEAN_ELEMENT_THEORY>SGP4</MEAN_ELEMENT_THEORY></metadata><data><meanElements><EPOCH>2024-09-07T11:17:05.237664</EPOCH><MEAN_MOTION>13.11418817</MEAN_MOTION><ECCENTRICITY>.0001581</ECCENTRICITY><INCLINATION>87.8985</INCLINATION><RA_OF_ASC_NODE>150.0355</RA_OF_ASC_NODE><ARG_OF_PERICENTER>78.3110</ARG_OF_PERICENTER><MEAN_ANOMALY>281.8195</MEAN_ANOMALY></meanElements><tleParameters><EPHEMERIS_TYPE>0</EPHEMERIS_TYPE><CLASSIFICATION_TYPE>U</CLASSIFICATION_TYPE><NORAD_CAT_ID>45444</NORAD_CAT_ID><ELEMENT_SET_NO>999</ELEMENT_SET_NO><REV_AT_EPOCH>21778</REV_AT_EPOCH><BSTAR>.11373E-2</BSTAR><MEAN_MOTION_DOT>.416E-5</MEAN_MOTION_DOT><MEAN_MOTION_DDOT>0</MEAN_MOTION_DDOT></tleParameters></data></segment></body></omm>
<omm id="CCSDS_OMM_VERS" version="2.0">
<header><CREATION_DATE/><ORIGINATOR/></header><body><segment><metadata><OBJECT_NAME>ONEWEB-0029</OBJECT_NAME><OBJECT_ID>2020-020X</OBJECT_ID><CENTER_NAME>EARTH</CENTER_NAME><REF_FRAME>TEME</REF_FRAME><TIME_SYSTEM>UTC</TIME_SYSTEM><MEAN_ELEMENT_THEORY>SGP4</MEAN_ELEMENT_THEORY></metadata><data><meanElements><EPOCH>2024-09-07T06:14:20.412672</EPOCH><MEAN_MOTION>13.11415080</MEAN_MOTION><ECCENTRICITY>.0001603</ECCENTRICITY><INCLINATION>87.8985</INCLINATION><RA_OF_ASC_NODE>150.0903</RA_OF_ASC_NODE><ARG_OF_PERICENTER>72.8053</ARG_OF_PERICENTER><MEAN_ANOMALY>287.3250</MEAN_ANOMALY></meanElements><tleParameters><EPHEMERIS_TYPE>0</EPHEMERIS_TYPE><CLASSIFICATION_TYPE>U</CLASSIFICATION_TYPE><NORAD_CAT_ID>45445</NORAD_CAT_ID><ELEMENT_SET_NO>999</ELEMENT_SET_NO><REV_AT_EPOCH>21773</REV_AT_EPOCH><BSTAR>.13787E-2</BSTAR><MEAN_MOTION_DOT>.501E-5</MEAN_MOTION_DOT><MEAN_MOTION_DDOT>0</MEAN_MOTION_DDOT></tleParameters></data></segment></body></omm>
<omm id="CCSDS_OMM_VERS" version="2.0">
<header><CREATION_DATE/><ORIGINATOR/></header><body><segment><metadata><OBJECT_NAME>ONEWEB-0068</OBJECT_NAME><OBJECT_ID>2020-020Y</OBJECT_ID><CENTER_NAME>EARTH</CENTER_NAME><REF_FRAME>TEME</REF_FRAME><TIME_SYSTEM>UTC</TIME_SYSTEM><MEAN_ELEMENT_THEORY>SGP4</MEAN_ELEMENT_THEORY></metadata><data><meanElements><EPOCH>2024-09-07T11:08:30.831936</EPOCH><MEAN_MOTION>13.11416681</MEAN_MOTION><ECCENTRICITY>.0001638</ECCENTRICITY><INCLINATION>87.8986</INCLINATION><RA_OF_ASC_NODE>150.0358</RA_OF_ASC_NODE><ARG_OF_PERICENTER>72.2119</ARG_OF_PERICENTER><MEAN_ANOMALY>287.9188</MEAN_ANOMALY></meanElements><tleParameters><EPHEMERIS_TYPE>0</EPHEMERIS_TYPE><CLASSIFICATION_TYPE>U</CLASSIFICATION_TYPE><NORAD_CAT_ID>45446</NORAD_CAT_ID><ELEMENT_SET_NO>999</ELEMENT_SET_NO><REV_AT_EPOCH>21771</REV_AT_EPOCH><BSTAR>.51276E-3</BSTAR><MEAN_MOTION_DOT>.194E-5</MEAN_MOTION_DOT><MEAN_MOTION_DDOT>0</MEAN_MOTION_DDOT></tleParameters></data></segment></body></omm>
<omm id="CCSDS_OMM_VERS" version="2.0">
<header><CREATION_DATE/><ORIGINATOR/></header><body><segment><metadata><OBJECT_NAME>ONEWEB-0046</OBJECT_NAME><OBJECT_ID>2020-020Z</OBJECT_ID><CENTER_NAME>EARTH</CENTER_NAME><REF_FRAME>TEME</REF_FRAME><TIME_SYSTEM>UTC</TIME_SYSTEM><MEAN_ELEMENT_THEORY>SGP4</MEAN_ELEMENT_THEORY></metadata><data><meanElements><EPOCH>2024-09-07T11:04:52.081824</EPOCH><MEAN_MOTION>13.11419167</MEAN_MOTION><ECCENTRICITY>.0001782</ECCENTRICITY><INCLINATION>87.8987</INCLINATION><RA_OF_ASC_NODE>150.0483</RA_OF_ASC_NODE><ARG_OF_PERICENTER>63.6913</ARG_OF_PERICENTER><MEAN_ANOMALY>296.4398</MEAN_ANOMALY></meanElements><tleParameters><EPHEMERIS_TYPE>0</EPHEMERIS_TYPE><CLASSIFICATION_TYPE>U</CLASSIFICATION_TYPE><NORAD_CAT_ID>45447</NORAD_CAT_ID><ELEMENT_SET_NO>999</ELEMENT_SET_NO><REV_AT_EPOCH>21771</REV_AT_EPOCH><BSTAR>.28631E-3</BSTAR><MEAN_MOTION_DOT>.114E-5</MEAN_MOTION_DOT><MEAN_MOTION_DDOT>0</MEAN_MOTION_DDOT></tleParameters></data></segment></body></omm>
<omm id="CCSDS_OMM_VERS" version="2.0">
<header><CREATION_DATE/><ORIGINATOR/></header><body><segment><metadata><OBJECT_NAME>ONEWEB-0063</OBJECT_NAME><OBJECT_ID>2020-020AA</OBJECT_ID><CENTER_NAME>EARTH</CENTER_NAME><REF_FRAME>TEME</REF_FRAME><TIME_SYSTEM>UTC</TIME_SYSTEM><MEAN_ELEMENT_THEORY>SGP4</MEAN_ELEMENT_THEORY></metadata><data><meanElements><EPOCH>2024-09-07T09:56:30.833664</EPOCH><MEAN_MOTION>13.11415515</MEAN_MOTION><ECCENTRICITY>.0001937</ECCENTRICITY><INCLINATION>87.8984</INCLINATION><RA_OF_ASC_NODE>150.0577</RA_OF_ASC_NODE><ARG_OF_PERICENTER>67.3085</ARG_OF_PERICENTER><MEAN_ANOMALY>292.8247</MEAN_ANOMALY></meanElements><tleParameters><EPHEMERIS_TYPE>0</EPHEMERIS_TYPE><CLASSIFICATION_TYPE>U</CLASSIFICATION_TYPE><NORAD_CAT_ID>45448</NORAD_CAT_ID><ELEMENT_SET_NO>999</ELEMENT_SET_NO><REV_AT_EPOCH>21779</REV_AT_EPOCH><BSTAR>.14677E-2</BSTAR><MEAN_MOTION_DOT>.533E-5</MEAN_MOTION_DOT><MEAN_MOTION_DDOT>0</MEAN_MOTION_DDOT></tleParameters></data></segment></body></omm>
<omm id="CCSDS_OMM_VERS" version="2.0">
<header><CREATION_DATE/><ORIGINATOR/></header><body><segment><metadata><OBJECT_NAME>ONEWEB-0019</OBJECT_NAME><OBJECT_ID>2020-020AB</OBJECT_ID><CENTER_NAME>EARTH</CENTER_NAME><REF_FRAME>TEME</REF_FRAME><TIME_SYSTEM>UTC</TIME_SYSTEM><MEAN_ELEMENT_THEORY>SGP4</MEAN_ELEMENT_THEORY></metadata><data><meanElements><EPOCH>2024-09-07T11:09:45.242208</EPOCH><MEAN_MOTION>13.11419352</MEAN_MOTION><ECCENTRICITY>.0001921</ECCENTRICITY><INCLINATION>87.8991</INCLINATION><RA_OF_ASC_NODE>150.0541</RA_OF_ASC_NODE><ARG_OF_PERICENTER>76.5093</ARG_OF_PERICENTER><MEAN_ANOMALY>283.6249</MEAN_ANOMALY></meanElements><tleParameters><EPHEMERIS_TYPE>0</EPHEMERIS_TYPE><CLASSIFICATION_TYPE>U</CLASSIFICATION_TYPE><NORAD_CAT_ID>45449</NORAD_CAT_ID><ELEMENT_SET_NO>999</ELEMENT_SET_NO><REV_AT_EPOCH>21764</REV_AT_EPOCH><BSTAR>.74601E-3</BSTAR><MEAN_MOTION_DOT>.277E-5</MEAN_MOTION_DOT><MEAN_MOTION_DDOT>0</MEAN_MOTION_DDOT></tleParameters></data></segment></body></omm>

</ndm>
